STARLINK-30605          
1 58101U 23161E   26068.56190566 -.00001224  00000+0 -29228-4 0  9995
2 58101  53.1609 166.0140 0001186  98.2694 261.8441 15.30184179134400
JINJUSAT-1B             
1 63210U 25052A   26068.66363707  .00019955  00000+0  68430-3 0  9998
2 63210  97.4113 325.4613 0005550  82.1930 277.9941 15.30194857 54866
